start=new Date('2023-01-29T00:00:00.000Z').valueOf();
sats=[{"REV_AT_EPOCH":"12622","OBJECT_TYPE":"PAYLOAD","EPOCH":"2023-01-28T21:56:57.792192","OBJECT_NAME":"STARLINK-1802","TLE_LINE2":"2 46702  53.0534 280.3075 0001124 101.6400 258.4715 15.06400359126224","CENTER_NAME":"EARTH","ECCENTRICITY":"0.00011240","FILE":"3764201","EPHEMERIS_TYPE":"0","SITE":"AFETR","MEAN_MOTION_DOT":"0.00001121","COUNTRY_CODE":"US","ELEMENT_SET_NO":"999","BSTAR":"0.00009415900000","DECAY_DATE":null,"MEAN_MOTION":"15.06400359","MEAN_ELEMENT_THEORY":"SGP4","NORAD_CAT_ID":"46702","REF_FRAME":"TEME","PERIAPSIS":"546.434","MEAN_ANOMALY":"258.4715","ARG_OF_PERICENTER":"101.6400","GP_ID":"223909378","RA_OF_ASC_NODE":"280.3075","LAUNCH_DATE":"2020-10-18","INCLINATION":"53.0534","CLASSIFICATION_TYPE":"U","OBJECT_ID":"2020-073AJ","APOAPSIS":"547.991","TLE_LINE1":"1 46702U 20073AJ  23028.91455778  .00001121  00000-0  94159-4 0  9999","MEAN_MOTION_DDOT":"0.0000000000000","PERIOD":"95.592","RCS_SIZE":"LARGE","TIME_SYSTEM":"UTC","SEMIMAJOR_AXIS":"6925.347"},{"LAUNCH_DATE":"2020-10-18","GP_ID":"223877594","RA_OF_ASC_NODE":"303.7455","MEAN_ANOMALY":"240.3943","ARG_OF_PERICENTER":"119.7190","MEAN_ELEMENT_THEORY":"SGP4","NORAD_CAT_ID":"46703","PERIAPSIS":"546.159","REF_FRAME":"TEME","PERIOD":"95.591","RCS_SIZE":"LARGE","TIME_SYSTEM":"UTC","SEMIMAJOR_AXIS":"6925.297","TLE_LINE1":"1 46703U 20073AK  23028.14976639  .00032303  00000-0  21766-2 0  9997","APOAPSIS":"548.165","MEAN_MOTION_DDOT":"0.0000000000000","INCLINATION":"53.0540","CLASSIFICATION_TYPE":"U","OBJECT_ID":"2020-073AK","SITE":"AFETR","MEAN_MOTION_DOT":"0.00032303","ECCENTRICITY":"0.00014480","EPHEMERIS_TYPE":"0","FILE":"3763924","OBJECT_NAME":"STARLINK-1803","CENTER_NAME":"EARTH","TLE_LINE2":"2 46703  53.0540 303.7455 0001448 119.7190 240.3943 15.06416734125821","REV_AT_EPOCH":"12582","OBJECT_TYPE":"PAYLOAD","EPOCH":"2023-01-28T03:35:39.816096","DECAY_DATE":null,"MEAN_MOTION":"15.06416734","ELEMENT_SET_NO":"999","COUNTRY_CODE":"US","BSTAR":"0.00217660000000"},{"SITE":"AFETR","MEAN_MOTION_DOT":"-0.00000213","EPHEMERIS_TYPE":"0","FILE":"3764201","ECCENTRICITY":"0.00011870","TLE_LINE2":"2 46704  53.0496 280.5681 0001187  98.3299 261.7825 15.06384765126215","CENTER_NAME":"EARTH","OBJECT_NAME":"STARLINK-1804","EPOCH":"2023-01-28T20:37:21.269280","REV_AT_EPOCH":"12621","OBJECT_TYPE":"PAYLOAD","DECAY_DATE":null,"MEAN_MOTION":"15.06384765","BSTAR":"0.00000461490000","ELEMENT_SET_NO":"999","COUNTRY_CODE":"US","LAUNCH_DATE":"2020-10-18","GP_ID":"223908393","RA_OF_ASC_NODE":"280.5681","MEAN_ANOMALY":"261.7825","ARG_OF_PERICENTER":"98.3299","NORAD_CAT_ID":"46704","REF_FRAME":"TEME","PERIAPSIS":"546.438","MEAN_ELEMENT_THEORY":"SGP4","TIME_SYSTEM":"UTC","SEMIMAJOR_AXIS":"6925.395","PERIOD":"95.593","RCS_SIZE":"LARGE","MEAN_MOTION_DDOT":"0.0000000000000","TLE_LINE1":"1 46704U 20073AL  23028.85927395 -.00000213  00000-0  46149-5 0  9992","APOAPSIS":"548.082","CLASSIFICATION_TYPE":"U","OBJECT_ID":"2020-073AL","INCLINATION":"53.0496"},{"GP_ID":"223876595","RA_OF_ASC_NODE":"318.4827","LAUNCH_DATE":"2020-10-18","MEAN_ELEMENT_THEORY":"SGP4","NORAD_CAT_ID":"46705","PERIAPSIS":"546.277","REF_FRAME":"TEME","ARG_OF_PERICENTER":"72.0774","MEAN_ANOMALY":"288.0369","PERIOD":"95.593","RCS_SIZE":"LARGE","TIME_SYSTEM":"UTC","SEMIMAJOR_AXIS":"6925.390","INCLINATION":"53.0543","OBJECT_ID":"2020-073AM","CLASSIFICATION_TYPE":"U","APOAPSIS":"548.233","TLE_LINE1":"1 46705U 20073AM  23028.20919520  .00016145  00000-0  11007-2 0  9995","MEAN_MOTION_DDOT":"0.0000000000000","ECCENTRICITY":"0.00014120","FILE":"3763924","EPHEMERIS_TYPE":"0","SITE":"AFETR","MEAN_MOTION_DOT":"0.00016145","REV_AT_EPOCH":"12562","OBJECT_TYPE":"PAYLOAD","EPOCH":"2023-01-28T05:01:14.465280","OBJECT_NAME":"STARLINK-1805","TLE_LINE2":"2 46705  53.0543 318.4827 0001412  72.0774 288.0369 15.06386486125621","CENTER_NAME":"EARTH","ELEMENT_SET_NO":"999","COUNTRY_CODE":"US","BSTAR":"0.00110070000000","DECAY_DATE":null,"MEAN_MOTION":"15.06386486"},{"MEAN_MOTION":"15.06396097","DECAY_DATE":null,"BSTAR":"0.00008708500000","COUNTRY_CODE":"US","ELEMENT_SET_NO":"999","CENTER_NAME":"EARTH","TLE_LINE2":"2 46706  53.0535 300.3250 0001280 110.8389 249.2737 15.06396097125941","OBJECT_NAME":"STARLINK-1807","EPOCH":"2023-01-28T21:54:18.614880","OBJECT_TYPE":"PAYLOAD","REV_AT_EPOCH":"12594","MEAN_MOTION_DOT":"0.00001016","SITE":"AFETR","EPHEMERIS_TYPE":"0","FILE":"3764201","ECCENTRICITY":"0.00012800","MEAN_MOTION_DDOT":"0.0000000000000","APOAPSIS":"548.112","TLE_LINE1":"1 46706U 20073AN  23028.91271545  .00001016  00000-0  87085-4 0  9994","CLASSIFICATION_TYPE":"U","OBJECT_ID":"2020-073AN","INCLINATION":"53.0535","SEMIMAJOR_AXIS":"6925.361","TIME_SYSTEM":"UTC","RCS_SIZE":"LARGE","PERIOD":"95.592","MEAN_ANOMALY":"249.2737","ARG_OF_PERICENTER":"110.8389","PERIAPSIS":"546.339","REF_FRAME":"TEME","NORAD_CAT_ID":"46706","MEAN_ELEMENT_THEORY":"SGP4","LAUNCH_DATE":"2020-10-18","RA_OF_ASC_NODE":"300.3250","GP_ID":"223909877"},{"OBJECT_NAME":"STARLINK-1808","TLE_LINE2":"2 46707  53.0504 280.3719 0001289  81.4495 278.6640 15.06397848126221","CENTER_NAME":"EARTH","OBJECT_TYPE":"PAYLOAD","REV_AT_EPOCH":"12622","EPOCH":"2023-01-28T21:41:02.340384","MEAN_MOTION_DOT":"-0.00000918","SITE":"AFETR","ECCENTRICITY":"0.00012890","EPHEMERIS_TYPE":"0","FILE":"3764201","MEAN_MOTION":"15.06397848","DECAY_DATE":null,"COUNTRY_CODE":"US","ELEMENT_SET_NO":"999","BSTAR":"-0.00004272000000","ARG_OF_PERICENTER":"81.4495","MEAN_ANOMALY":"278.6640","MEAN_ELEMENT_THEORY":"SGP4","PERIAPSIS":"546.327","REF_FRAME":"TEME","NORAD_CAT_ID":"46707","LAUNCH_DATE":"2020-10-18","RA_OF_ASC_NODE":"280.3719","GP_ID":"223908642","APOAPSIS":"548.113","TLE_LINE1":"1 46707U 20073AP  23028.90349931 -.00000918  00000-0 -42720-4 0  9998","MEAN_MOTION_DDOT":"0.0000000000000","INCLINATION":"53.0504","OBJECT_ID":"2020-073AP","CLASSIFICATION_TYPE":"U","RCS_SIZE":"LARGE","PERIOD":"95.592","SEMIMAJOR_AXIS":"6925.355","TIME_SYSTEM":"UTC"},{"DECAY_DATE":null,"MEAN_MOTION":"15.06399249","COUNTRY_CODE":"US","ELEMENT_SET_NO":"999","BSTAR":"0.00044410000000","OBJECT_NAME":"STARLINK-1810","TLE_LINE2":"2 46709  53.0522 316.0428 0001394  90.2705 269.8443 15.06399249125708","CENTER_NAME":"EARTH","REV_AT_EPOCH":"12570","OBJECT_TYPE":"PAYLOAD","EPOCH":"2023-01-28T18:43:55.485120","SITE":"AFETR","MEAN_MOTION_DOT":"0.00006339","ECCENTRICITY":"0.00013940","EPHEMERIS_TYPE":"0","FILE":"3764201","APOAPSIS":"548.181","TLE_LINE1":"1 46709U 20073AR  23028.78050330  .00006339  00000-0  44410-3 0  9996","MEAN_MOTION_DDOT":"0.0000000000000","INCLINATION":"53.0522","OBJECT_ID":"2020-073AR","CLASSIFICATION_TYPE":"U","PERIOD":"95.592","RCS_SIZE":"LARGE","TIME_SYSTEM":"UTC","SEMIMAJOR_AXIS":"6925.351","ARG_OF_PERICENTER":"90.2705","MEAN_ANOMALY":"269.8443","MEAN_ELEMENT_THEORY":"SGP4","NORAD_CAT_ID":"46709","REF_FRAME":"TEME","PERIAPSIS":"546.250","LAUNCH_DATE":"2020-10-18","GP_ID":"223908892","RA_OF_ASC_NODE":"316.0428"},{"GP_ID":"223909640","RA_OF_ASC_NODE":"315.8372","LAUNCH_DATE":"2020-10-18","NORAD_CAT_ID":"46710","PERIAPSIS":"546.170","REF_FRAME":"TEME","MEAN_ELEMENT_THEORY":"SGP4","ARG_OF_PERICENTER":"90.6649","MEAN_ANOMALY":"269.4514","TIME_SYSTEM":"UTC","SEMIMAJOR_AXIS":"6925.356","PERIOD":"95.592","RCS_SIZE":"LARGE","OBJECT_ID":"2020-073AS","CLASSIFICATION_TYPE":"U","INCLINATION":"53.0526","MEAN_MOTION_DDOT":"0.0000000000000","TLE_LINE1":"1 46710U 20073AS  23028.79891502 -.00000816  00000-0 -35913-4 0  9998","APOAPSIS":"548.271","EPHEMERIS_TYPE":"0","FILE":"3764201","ECCENTRICITY":"0.00015170","SITE":"AFETR","MEAN_MOTION_DOT":"-0.00000816","EPOCH":"2023-01-28T19:10:26.257728","REV_AT_EPOCH":"12571","OBJECT_TYPE":"PAYLOAD","CENTER_NAME":"EARTH","TLE_LINE2":"2 46710  53.0526 315.8372 0001517  90.6649 269.4514 15.06397661125719","OBJECT_NAME":"STARLINK-1811","BSTAR":"-0.00003591300000","ELEMENT_SET_NO":"999","COUNTRY_CODE":"US","DECAY_DATE":null,"MEAN_MOTION":"15.06397661"},{"EPOCH":"2023-01-28T21:43:42.035232","OBJECT_TYPE":"PAYLOAD","REV_AT_EPOCH":"12594","CENTER_NAME":"EARTH","TLE_LINE2":"2 46711  53.0539 300.3547 0001195  77.2864 282.8258 15.06392426125942","OBJECT_NAME":"STARLINK-1813","FILE":"3764201","EPHEMERIS_TYPE":"0","ECCENTRICITY":"0.00011950","MEAN_MOTION_DOT":"0.00008850","SITE":"AFETR","BSTAR":"0.00061242000000","ELEMENT_SET_NO":"999","COUNTRY_CODE":"US","MEAN_MOTION":"15.06392426","DECAY_DATE":null,"PERIAPSIS":"546.409","REF_FRAME":"TEME","NORAD_CAT_ID":"46711","MEAN_ELEMENT_THEORY":"SGP4","MEAN_ANOMALY":"282.8258","ARG_OF_PERICENTER":"77.2864","RA_OF_ASC_NODE":"300.3547","GP_ID":"223909379","LAUNCH_DATE":"2020-10-18","CLASSIFICATION_TYPE":"U","OBJECT_ID":"2020-073AT","INCLINATION":"53.0539","MEAN_MOTION_DDOT":"0.0000000000000","APOAPSIS":"548.064","TLE_LINE1":"1 46711U 20073AT  23028.90534763  .00008850  00000-0  61242-3 0  9992","SEMIMAJOR_AXIS":"6925.372","TIME_SYSTEM":"UTC","RCS_SIZE":"LARGE","PERIOD":"95.593"},{"MEAN_MOTION":"15.06405396","DECAY_DATE":null,"ELEMENT_SET_NO":"999","COUNTRY_CODE":"US","BSTAR":"0.00032644000000","MEAN_MOTION_DOT":"0.00004585","SITE":"AFETR","ECCENTRICITY":"0.00011580","EPHEMERIS_TYPE":"0","FILE":"3764201","OBJECT_NAME":"STARLINK-1814","CENTER_NAME":"EARTH","TLE_LINE2":"2 46712  53.0525 300.5829 0001158  92.7739 267.3383 15.06405396125932","OBJECT_TYPE":"PAYLOAD","REV_AT_EPOCH":"12593","EPOCH":"2023-01-28T21:11:52.399104","RCS_SIZE":"LARGE","PERIOD":"95.592","SEMIMAJOR_AXIS":"6925.332","TIME_SYSTEM":"UTC","TLE_LINE1":"1 46712U 20073AU  23028.88324536  .00004585  00000-0  32644-3 0  9990","APOAPSIS":"547.999","MEAN_MOTION_DDOT":"0.0000000000000","INCLINATION":"53.0525","CLASSIFICATION_TYPE":"U","OBJECT_ID":"2020-073AU","LAUNCH_DATE":"2020-10-18","RA_OF_ASC_NODE":"300.5829","GP_ID":"223908144","ARG_OF_PERICENTER":"92.7739","MEAN_ANOMALY":"267.3383","MEAN_ELEMENT_THEORY":"SGP4","REF_FRAME":"TEME","PERIAPSIS":"546.395","NORAD_CAT_ID":"46712"}];
